[{"OBJECT_NAME":"FLOCK 4Q-11","OBJECT_ID":"2023-174T","EPOCH":"2026-03-05T11:43:07.439520","MEAN_MOTION":15.44890636,"ECCENTRICITY":0.00076596,"INCLINATION":97.3908,"RA_OF_ASC_NODE":151.0233,"ARG_OF_PERICENTER":169.1762,"MEAN_ANOMALY":190.9653,"EPHEMERIS_TYPE":0,"CLASSIFICATION_TYPE":"U","NORAD_CAT_ID":58273,"ELEMENT_SET_NO":999,"REV_AT_EPOCH":12955,"BSTAR":0.00064377214,"MEAN_MOTION_DOT":0.00030257,"MEAN_MOTION_DDOT":0},{"OBJECT_NAME":"FLOCK 4Q-36","OBJECT_ID":"2023-174U","EPOCH":"2026-03-05T05:20:32.426592","MEAN_MOTION":15.5087325,"ECCENTRICITY":0.00076886,"INCLINATION":97.3896,"RA_OF_ASC_NODE":153.3731,"ARG_OF_PERICENTER":160.0606,"MEAN_ANOMALY":200.0948,"EPHEMERIS_TYPE":0,"CLASSIFICATION_TYPE":"U","NORAD_CAT_ID":58274,"ELEMENT_SET_NO":999,"REV_AT_EPOCH":12968,"BSTAR":0.00061664473,"MEAN_MOTION_DOT":0.00035691,"MEAN_MOTION_DDOT":0},{"OBJECT_NAME":"FLOCK 4Q-12","OBJECT_ID":"2023-174V","EPOCH":"2026-03-05T11:46:32.755296","MEAN_MOTION":15.51242919,"ECCENTRICITY":0.00059053,"INCLINATION":97.3888,"RA_OF_ASC_NODE":153.5319,"ARG_OF_PERICENTER":166.7311,"MEAN_ANOMALY":193.4097,"EPHEMERIS_TYPE":0,"CLASSIFICATION_TYPE":"U","NORAD_CAT_ID":58275,"ELEMENT_SET_NO":999,"REV_AT_EPOCH":12974,"BSTAR":0.0015076755,"MEAN_MOTION_DOT":0.00089108,"MEAN_MOTION_DDOT":0},{"OBJECT_NAME":"FLOCK 4Q-28","OBJECT_ID":"2023-174AA","EPOCH":"2026-03-05T04:09:41.283072","MEAN_MOTION":15.48712324,"ECCENTRICITY":0.0007196,"INCLINATION":97.3915,"RA_OF_ASC_NODE":152.4474,"ARG_OF_PERICENTER":166.8181,"MEAN_ANOMALY":193.3259,"EPHEMERIS_TYPE":0,"CLASSIFICATION_TYPE":"U","NORAD_CAT_ID":58280,"ELEMENT_SET_NO":999,"REV_AT_EPOCH":12961,"BSTAR":0.00073233658,"MEAN_MOTION_DOT":0.00039314,"MEAN_MOTION_DDOT":0},{"OBJECT_NAME":"FLOCK 4Q-27","OBJECT_ID":"2023-174AC","EPOCH":"2026-03-05T05:36:41.190048","MEAN_MOTION":15.48699488,"ECCENTRICITY":0.00067077,"INCLINATION":97.3859,"RA_OF_ASC_NODE":152.0521,"ARG_OF_PERICENTER":162.2699,"MEAN_ANOMALY":197.8788,"EPHEMERIS_TYPE":0,"CLASSIFICATION_TYPE":"U","NORAD_CAT_ID":58282,"ELEMENT_SET_NO":999,"REV_AT_EPOCH":12963,"BSTAR":0.00075241866,"MEAN_MOTION_DOT":0.00040377,"MEAN_MOTION_DDOT":0},{"OBJECT_NAME":"FLOCK 4Q-26","OBJECT_ID":"2023-174AE","EPOCH":"2026-03-05T11:19:01.103520","MEAN_MOTION":15.50522014,"ECCENTRICITY":0.00073788,"INCLINATION":97.3907,"RA_OF_ASC_NODE":153.7154,"ARG_OF_PERICENTER":163.5308,"MEAN_ANOMALY":196.6185,"EPHEMERIS_TYPE":0,"CLASSIFICATION_TYPE":"U","NORAD_CAT_ID":58284,"ELEMENT_SET_NO":999,"REV_AT_EPOCH":12972,"BSTAR":0.00072402687,"MEAN_MOTION_DOT":0.00041431,"MEAN_MOTION_DDOT":0},{"OBJECT_NAME":"FLOCK 4Q-31","OBJECT_ID":"2023-174AF","EPOCH":"2026-03-05T04:17:17.595168","MEAN_MOTION":15.50007501,"ECCENTRICITY":0.00077825,"INCLINATION":97.3955,"RA_OF_ASC_NODE":153.0575,"ARG_OF_PERICENTER":166.5095,"MEAN_ANOMALY":193.6365,"EPHEMERIS_TYPE":0,"CLASSIFICATION_TYPE":"U","NORAD_CAT_ID":58285,"ELEMENT_SET_NO":999,"REV_AT_EPOCH":12963,"BSTAR":0.00077745834,"MEAN_MOTION_DOT":0.00043713,"MEAN_MOTION_DDOT":0},{"OBJECT_NAME":"FLOCK 4Q-30","OBJECT_ID":"2023-174AG","EPOCH":"2026-03-05T05:33:50.502528","MEAN_MOTION":15.50236728,"ECCENTRICITY":0.00075291,"INCLINATION":97.3954,"RA_OF_ASC_NODE":153.2923,"ARG_OF_PERICENTER":163.1697,"MEAN_ANOMALY":196.9806,"EPHEMERIS_TYPE":0,"CLASSIFICATION_TYPE":"U","NORAD_CAT_ID":58286,"ELEMENT_SET_NO":999,"REV_AT_EPOCH":12965,"BSTAR":0.00078959936,"MEAN_MOTION_DOT":0.0004476,"MEAN_MOTION_DDOT":0},{"OBJECT_NAME":"PELICAN-1","OBJECT_ID":"2023-174AS","EPOCH":"2026-03-05T05:17:21.030720","MEAN_MOTION":15.63352596,"ECCENTRICITY":0.00088343,"INCLINATION":97.3829,"RA_OF_ASC_NODE":158.7414,"ARG_OF_PERICENTER":215.1143,"MEAN_ANOMALY":144.9535,"EPHEMERIS_TYPE":0,"CLASSIFICATION_TYPE":"U","NORAD_CAT_ID":58296,"ELEMENT_SET_NO":999,"REV_AT_EPOCH":12986,"BSTAR":0.00093304656,"MEAN_MOTION_DOT":0.00086541,"MEAN_MOTION_DDOT":0},{"OBJECT_NAME":"FLOCK 4Q-25","OBJECT_ID":"2023-174AZ","EPOCH":"2026-03-05T11:31:00.756768","MEAN_MOTION":15.56076922,"ECCENTRICITY":0.00053398,"INCLINATION":97.387,"RA_OF_ASC_NODE":154.3985,"ARG_OF_PERICENTER":148.5002,"MEAN_ANOMALY":211.6574,"EPHEMERIS_TYPE":0,"CLASSIFICATION_TYPE":"U","NORAD_CAT_ID":58303,"ELEMENT_SET_NO":999,"REV_AT_EPOCH":12981,"BSTAR":0.00080805765,"MEAN_MOTION_DOT":0.00056594,"MEAN_MOTION_DDOT":0},{"OBJECT_NAME":"FLOCK 4Q-29","OBJECT_ID":"2023-174BA","EPOCH":"2026-03-05T13:56:27.526560","MEAN_MOTION":15.49207114,"ECCENTRICITY":0.00078774,"INCLINATION":97.3942,"RA_OF_ASC_NODE":153.2512,"ARG_OF_PERICENTER":153.8159,"MEAN_ANOMALY":206.3491,"EPHEMERIS_TYPE":0,"CLASSIFICATION_TYPE":"U","NORAD_CAT_ID":58304,"ELEMENT_SET_NO":999,"REV_AT_EPOCH":12968,"BSTAR":0.00067836164,"MEAN_MOTION_DOT":0.00037042,"MEAN_MOTION_DDOT":0},{"OBJECT_NAME":"FLOCK 4Q-22","OBJECT_ID":"2023-174BC","EPOCH":"2026-03-05T11:36:23.433984","MEAN_MOTION":15.51785732,"ECCENTRICITY":0.00066233,"INCLINATION":97.3856,"RA_OF_ASC_NODE":153.322,"ARG_OF_PERICENTER":157.7651,"MEAN_ANOMALY":202.389,"EPHEMERIS_TYPE":0,"CLASSIFICATION_TYPE":"U","NORAD_CAT_ID":58306,"ELEMENT_SET_NO":999,"REV_AT_EPOCH":12974,"BSTAR":0.00076261504,"MEAN_MOTION_DOT":0.00045663,"MEAN_MOTION_DDOT":0},{"OBJECT_NAME":"FLOCK 4Q-23","OBJECT_ID":"2023-174BD","EPOCH":"2026-03-05T04:35:54.382560","MEAN_MOTION":15.54858267,"ECCENTRICITY":0.0006959,"INCLINATION":97.3963,"RA_OF_ASC_NODE":154.5565,"ARG_OF_PERICENTER":154.7612,"MEAN_ANOMALY":205.3984,"EPHEMERIS_TYPE":0,"CLASSIFICATION_TYPE":"U","NORAD_CAT_ID":58307,"ELEMENT_SET_NO":999,"REV_AT_EPOCH":12973,"BSTAR":0.00076825588,"MEAN_MOTION_DOT":0.00051438,"MEAN_MOTION_DDOT":0},{"OBJECT_NAME":"FLOCK 4Q-33","OBJECT_ID":"2023-174BE","EPOCH":"2026-03-05T05:01:28.951104","MEAN_MOTION":15.50846048,"ECCENTRICITY":0.00075708,"INCLINATION":97.3882,"RA_OF_ASC_NODE":152.9799,"ARG_OF_PERICENTER":148.237,"MEAN_ANOMALY":211.934,"EPHEMERIS_TYPE":0,"CLASSIFICATION_TYPE":"U","NORAD_CAT_ID":58308,"ELEMENT_SET_NO":999,"REV_AT_EPOCH":12968,"BSTAR":0.0007006733,"MEAN_MOTION_DOT":0.00040552,"MEAN_MOTION_DDOT":0},{"OBJECT_NAME":"FLOCK 4Q-35","OBJECT_ID":"2023-174BF","EPOCH":"2026-03-05T04:38:17.422080","MEAN_MOTION":15.49829086,"ECCENTRICITY":0.0008186,"INCLINATION":97.3905,"RA_OF_ASC_NODE":153.135,"ARG_OF_PERICENTER":161.4852,"MEAN_ANOMALY":198.6699,"EPHEMERIS_TYPE":0,"CLASSIFICATION_TYPE":"U","NORAD_CAT_ID":58309,"ELEMENT_SET_NO":999,"REV_AT_EPOCH":12966,"BSTAR":0.00073257348,"MEAN_MOTION_DOT":0.00040917,"MEAN_MOTION_DDOT":0},{"OBJECT_NAME":"FLOCK 4Q-34","OBJECT_ID":"2023-174BN","EPOCH":"2026-03-05T04:52:42.263616","MEAN_MOTION":15.5506085,"ECCENTRICITY":0.00067844,"INCLINATION":97.3866,"RA_OF_ASC_NODE":153.9723,"ARG_OF_PERICENTER":156.0105,"MEAN_ANOMALY":204.1466,"EPHEMERIS_TYPE":0,"CLASSIFICATION_TYPE":"U","NORAD_CAT_ID":58316,"ELEMENT_SET_NO":999,"REV_AT_EPOCH":12974,"BSTAR":0.00084166942,"MEAN_MOTION_DOT":0.00056817,"MEAN_MOTION_DDOT":0}]
